CCSDS_OMM_VERS = 2.0
CREATION_DATE  = 
ORIGINATOR     = 

OBJECT_NAME    = ATLAS CENTAUR 2
OBJECT_ID      = 1963-047A
CENTER_NAME    = EARTH
REF_FRAME      = TEME
TIME_SYSTEM    = UTC
MEAN_ELEMENT_THEORY = SGP/SGP4

EPOCH          = 2026-03-02T14:50:32.451360
MEAN_MOTION    = 14.12042692
ECCENTRICITY   = .05478505
INCLINATION    = 30.3526
RA_OF_ASC_NODE = 235.1621
ARG_OF_PERICENTER = 17.9681
MEAN_ANOMALY   = 343.9500

EPHEMERIS_TYPE = 0
CLASSIFICATION_TYPE = U
NORAD_CAT_ID   = 694
ELEMENT_SET_NO = 999
REV_AT_EPOCH   = 13062
BSTAR          = .19033625E-3
MEAN_MOTION_DOT = .1642E-4
MEAN_MOTION_DDOT = 0

CCSDS_OMM_VERS = 2.0
CREATION_DATE  = 
ORIGINATOR     = 

OBJECT_NAME    = THOR AGENA D R/B
OBJECT_ID      = 1964-002A
CENTER_NAME    = EARTH
REF_FRAME      = TEME
TIME_SYSTEM    = UTC
MEAN_ELEMENT_THEORY = SGP/SGP4

EPOCH          = 2026-03-02T14:45:00.169920
MEAN_MOTION    = 14.34015098
ECCENTRICITY   = .00319013
INCLINATION    = 99.1228
RA_OF_ASC_NODE = 74.5665
ARG_OF_PERICENTER = 279.3265
MEAN_ANOMALY   = 80.4311

EPHEMERIS_TYPE = 0
CLASSIFICATION_TYPE = U
NORAD_CAT_ID   = 733
ELEMENT_SET_NO = 999
REV_AT_EPOCH   = 23728
BSTAR          = .11255098E-3
MEAN_MOTION_DOT = .267E-5
MEAN_MOTION_DDOT = 0

CCSDS_OMM_VERS = 2.0
CREATION_DATE  = 
ORIGINATOR     = 

OBJECT_NAME    = SL-3 R/B
OBJECT_ID      = 1964-053B
CENTER_NAME    = EARTH
REF_FRAME      = TEME
TIME_SYSTEM    = UTC
MEAN_ELEMENT_THEORY = SGP/SGP4

EPOCH          = 2026-03-02T12:09:04.464288
MEAN_MOTION    = 14.61360281
ECCENTRICITY   = .00794447
INCLINATION    = 65.0787
RA_OF_ASC_NODE = 352.2960
ARG_OF_PERICENTER = 294.5017
MEAN_ANOMALY   = 64.7814

EPHEMERIS_TYPE = 0
CLASSIFICATION_TYPE = U
NORAD_CAT_ID   = 877
ELEMENT_SET_NO = 999
REV_AT_EPOCH   = 26574
BSTAR          = .11473408E-3
MEAN_MOTION_DOT = .468E-5
MEAN_MOTION_DDOT = 0

CCSDS_OMM_VERS = 2.0
CREATION_DATE  = 
ORIGINATOR     = 

OBJECT_NAME    = SL-8 R/B
OBJECT_ID      = 1967-045B
CENTER_NAME    = EARTH
REF_FRAME      = TEME
TIME_SYSTEM    = UTC
MEAN_ELEMENT_THEORY = SGP/SGP4

EPOCH          = 2026-03-02T07:24:39.906144
MEAN_MOTION    = 14.45614163
ECCENTRICITY   = .00638927
INCLINATION    = 74.0134
RA_OF_ASC_NODE = 1.8716
ARG_OF_PERICENTER = 9.8975
MEAN_ANOMALY   = 350.3424

EPHEMERIS_TYPE = 0
CLASSIFICATION_TYPE = U
NORAD_CAT_ID   = 2802
ELEMENT_SET_NO = 999
REV_AT_EPOCH   = 8795
BSTAR          = .16554568E-3
MEAN_MOTION_DOT = .572E-5
MEAN_MOTION_DDOT = 0

CCSDS_OMM_VERS = 2.0
CREATION_DATE  = 
ORIGINATOR     = 

OBJECT_NAME    = SL-8 R/B
OBJECT_ID      = 1968-040B
CENTER_NAME    = EARTH
REF_FRAME      = TEME
TIME_SYSTEM    = UTC
MEAN_ELEMENT_THEORY = SGP/SGP4

EPOCH          = 2026-03-02T10:55:55.868736
MEAN_MOTION    = 15.03196687
ECCENTRICITY   = .00242381
INCLINATION    = 74.0333
RA_OF_ASC_NODE = 328.4747
ARG_OF_PERICENTER = 154.5530
MEAN_ANOMALY   = 205.6858

EPHEMERIS_TYPE = 0
CLASSIFICATION_TYPE = U
NORAD_CAT_ID   = 3230
ELEMENT_SET_NO = 999
REV_AT_EPOCH   = 8892
BSTAR          = .28195675E-3
MEAN_MOTION_DOT = .3797E-4
MEAN_MOTION_DDOT = 0

CCSDS_OMM_VERS = 2.0
CREATION_DATE  = 
ORIGINATOR     = 

OBJECT_NAME    = OAO 2
OBJECT_ID      = 1968-110A
CENTER_NAME    = EARTH
REF_FRAME      = TEME
TIME_SYSTEM    = UTC
MEAN_ELEMENT_THEORY = SGP/SGP4

EPOCH          = 2026-03-02T01:21:18.717696
MEAN_MOTION    = 14.47302301
ECCENTRICITY   = .00051059
INCLINATION    = 34.9937
RA_OF_ASC_NODE = 307.8423
ARG_OF_PERICENTER = 142.9926
MEAN_ANOMALY   = 217.1117

EPHEMERIS_TYPE = 0
CLASSIFICATION_TYPE = U
NORAD_CAT_ID   = 3597
ELEMENT_SET_NO = 999
REV_AT_EPOCH   = 1799
BSTAR          = .9107094E-4
MEAN_MOTION_DOT = .319E-5
MEAN_MOTION_DDOT = 0

CCSDS_OMM_VERS = 2.0
CREATION_DATE  = 
ORIGINATOR     = 

OBJECT_NAME    = ISIS 1
OBJECT_ID      = 1969-009A
CENTER_NAME    = EARTH
REF_FRAME      = TEME
TIME_SYSTEM    = UTC
MEAN_ELEMENT_THEORY = SGP/SGP4

EPOCH          = 2026-03-02T13:13:13.139328
MEAN_MOTION    = 11.30411520
ECCENTRICITY   = .17078384
INCLINATION    = 88.4549
RA_OF_ASC_NODE = 156.0868
ARG_OF_PERICENTER = 103.5637
MEAN_ANOMALY   = 276.0664

EPHEMERIS_TYPE = 0
CLASSIFICATION_TYPE = U
NORAD_CAT_ID   = 3669
ELEMENT_SET_NO = 999
REV_AT_EPOCH   = 34772
BSTAR          = .12026791E-3
MEAN_MOTION_DOT = .193E-5
MEAN_MOTION_DDOT = 0

CCSDS_OMM_VERS = 2.0
CREATION_DATE  = 
ORIGINATOR     = 

OBJECT_NAME    = SERT 2
OBJECT_ID      = 1970-009A
CENTER_NAME    = EARTH
REF_FRAME      = TEME
TIME_SYSTEM    = UTC
MEAN_ELEMENT_THEORY = SGP/SGP4

EPOCH          = 2026-03-02T13:53:23.159328
MEAN_MOTION    = 13.58729112
ECCENTRICITY   = .00047708
INCLINATION    = 99.2750
RA_OF_ASC_NODE = 5.0618
ARG_OF_PERICENTER = 173.0554
MEAN_ANOMALY   = 0.4165

EPHEMERIS_TYPE = 0
CLASSIFICATION_TYPE = U
NORAD_CAT_ID   = 4327
ELEMENT_SET_NO = 999
REV_AT_EPOCH   = 77892
BSTAR          = .56335582E-4
MEAN_MOTION_DOT = 0
MEAN_MOTION_DDOT = 0

CCSDS_OMM_VERS = 2.0
CREATION_DATE  = 
ORIGINATOR     = 

OBJECT_NAME    = SL-3 R/B
OBJECT_ID      = 1971-028B
CENTER_NAME    = EARTH
REF_FRAME      = TEME
TIME_SYSTEM    = UTC
MEAN_ELEMENT_THEORY = SGP/SGP4

EPOCH          = 2026-03-02T14:29:47.175936
MEAN_MOTION    = 15.60427624
ECCENTRICITY   = .00142961
INCLINATION    = 81.2332
RA_OF_ASC_NODE = 60.7768
ARG_OF_PERICENTER = 315.9121
MEAN_ANOMALY   = 44.0991

EPHEMERIS_TYPE = 0
CLASSIFICATION_TYPE = U
NORAD_CAT_ID   = 5118
ELEMENT_SET_NO = 999
REV_AT_EPOCH   = 98756
BSTAR          = .5161437E-3
MEAN_MOTION_DOT = .42753E-3
MEAN_MOTION_DDOT = 0

CCSDS_OMM_VERS = 2.0
CREATION_DATE  = 
ORIGINATOR     = 

OBJECT_NAME    = ASTEX 1
OBJECT_ID      = 1971-089A
CENTER_NAME    = EARTH
REF_FRAME      = TEME
TIME_SYSTEM    = UTC
MEAN_ELEMENT_THEORY = SGP/SGP4

EPOCH          = 2026-03-02T12:15:56.615616
MEAN_MOTION    = 14.50760687
ECCENTRICITY   = .00178298
INCLINATION    = 92.7131
RA_OF_ASC_NODE = 149.4382
ARG_OF_PERICENTER = 107.0218
MEAN_ANOMALY   = 253.2944

EPHEMERIS_TYPE = 0
CLASSIFICATION_TYPE = U
NORAD_CAT_ID   = 5560
ELEMENT_SET_NO = 999
REV_AT_EPOCH   = 86126
BSTAR          = .16032703E-3
MEAN_MOTION_DOT = .631E-5
MEAN_MOTION_DDOT = 0

CCSDS_OMM_VERS = 2.0
CREATION_DATE  = 
ORIGINATOR     = 

OBJECT_NAME    = SL-8 R/B
OBJECT_ID      = 1971-119B
CENTER_NAME    = EARTH
REF_FRAME      = TEME
TIME_SYSTEM    = UTC
MEAN_ELEMENT_THEORY = SGP/SGP4

EPOCH          = 2026-03-02T15:06:27.288000
MEAN_MOTION    = 14.37634118
ECCENTRICITY   = .05501126
INCLINATION    = 73.8871
RA_OF_ASC_NODE = 188.9121
ARG_OF_PERICENTER = 157.0195
MEAN_ANOMALY   = 205.6634

EPHEMERIS_TYPE = 0
CLASSIFICATION_TYPE = U
NORAD_CAT_ID   = 5730
ELEMENT_SET_NO = 999
REV_AT_EPOCH   = 65447
BSTAR          = .89481298E-3
MEAN_MOTION_DOT = .1724E-3
MEAN_MOTION_DDOT = 0

CCSDS_OMM_VERS = 2.0
CREATION_DATE  = 
ORIGINATOR     = 

OBJECT_NAME    = OAO 3 (COPERNICUS)
OBJECT_ID      = 1972-065A
CENTER_NAME    = EARTH
REF_FRAME      = TEME
TIME_SYSTEM    = UTC
MEAN_ELEMENT_THEORY = SGP/SGP4

EPOCH          = 2026-03-02T12:10:10.765056
MEAN_MOTION    = 14.59990988
ECCENTRICITY   = .00059304
INCLINATION    = 35.0069
RA_OF_ASC_NODE = 338.2376
ARG_OF_PERICENTER = 104.0720
MEAN_ANOMALY   = 62.4990

EPHEMERIS_TYPE = 0
CLASSIFICATION_TYPE = U
NORAD_CAT_ID   = 6153
ELEMENT_SET_NO = 999
REV_AT_EPOCH   = 84514
BSTAR          = .10698708E-3
MEAN_MOTION_DOT = .5E-5
MEAN_MOTION_DDOT = 0

