ATLAS CENTAUR 2         
1 00694U 63047A   26061.61843115  .00001642  00000+0  19034-3 0  9995
2 00694  30.3526 235.1621 0547850  17.9681 343.9500 14.12042692130628
THOR AGENA D R/B        
1 00733U 64002A   26061.61458530  .00000267  00000+0  11255-3 0  9993
2 00733  99.1228  74.5665 0031901 279.3265  80.4311 14.34015098237281
SL-3 R/B                
1 00877U 64053B   26061.50630167  .00000468  00000+0  11473-3 0  9999
2 00877  65.0787 352.2960 0079444 294.5017  64.7814 14.61360281265746
SL-8 R/B                
1 02802U 67045B   26061.30879521  .00000572  00000+0  16555-3 0  9992
2 02802  74.0134   1.8716 0063892   9.8975 350.3424 14.45614163 87957
SL-8 R/B                
1 03230U 68040B   26061.45550774  .00003797  00000+0  28196-3 0  9992
2 03230  74.0333 328.4747 0024238 154.5530 205.6858 15.03196687 88924
OAO 2                   
1 03597U 68110A   26061.05646664  .00000319  00000+0  91071-4 0  9996
2 03597  34.9937 307.8423 0005105 142.9926 217.1117 14.47302301 17993
ISIS 1                  
1 03669U 69009A   26061.55084652  .00000193  00000+0  12027-3 0  9995
2 03669  88.4549 156.0868 1707838 103.5637 276.0664 11.30411520347729
SERT 2                  
1 04327U 70009A   26061.57874027  .00000000  00000+0  56336-4 0  9993
2 04327  99.2750   5.0618 0004770 173.0554   0.4165 13.58729112778921
SL-3 R/B                
1 05118U 71028B   26061.60401824  .00042753  00000+0  51614-3 0  9993
2 05118  81.2332  60.7768 0014296 315.9121  44.0991 15.60427624987563
ASTEX 1                 
1 05560U 71089A   26061.51107194  .00000631  00000+0  16033-3 0  9999
2 05560  92.7131 149.4382 0017829 107.0218 253.2944 14.50760687861264
SL-8 R/B                
1 05730U 71119B   26061.62948250  .00017240  00000+0  89481-3 0  9991
2 05730  73.8871 188.9121 0550112 157.0195 205.6634 14.37634118654473
OAO 3 (COPERNICUS)      
1 06153U 72065A   26061.50706904  .00000500  00000+0  10699-3 0  9993
2 06153  35.0069 338.2376 0005930 104.0720  62.4990 14.59990988845147
